{
  "type": "FeatureCollection",
  "features": [
    {
      "type": "Feature",
      "properties": {
        "norad_id": 33860,
        "name": "IRIDIUM 33 DEB",
        "group": "iridium-33-debris",
        "lat": 5.097807680605804,
        "lon": -151.51946395432378,
        "alt_km": 677.5779573617774,
        "timestamp": "2025-12-09T04:51:47.876493+00:00",
        "meta_object_name": "IRIDIUM 33 DEB",
        "meta_object_id": "1997-051AD",
        "meta_epoch": "2025-12-08T10:20:45.237696",
        "meta_mean_motion": 14.67281531,
        "meta_eccentricity": 0.00080141,
        "meta_inclination": 86.3837,
        "meta_ra_of_asc_node": 29.1451,
        "meta_arg_of_pericenter": 12.6318,
        "meta_mean_anomaly": 49.2169,
        "meta_ephemeris_type": 0,
        "meta_classification_type": "U",
        "meta_norad_cat_id": 33860,
        "meta_element_set_no": 999,
        "meta_rev_at_epoch": 88659,
        "meta_bstar": 0.0015327477,
        "meta_mean_motion_dot": 8.67e-05,
        "meta_mean_motion_ddot": 0,
        "tle_line1": "1 33860U 97051AD  25342.43107914  .00008670  00000+0  15327-2 0  9997",
        "tle_line2": "2 33860  86.3837  29.1451 0008014  12.6318  49.2169 14.67281531886598"
      },
      "geometry": {
        "type": "Point",
        "coordinates": [
          -151.51946395432378,
          5.097807680605804
        ]
      }
    },
    {
      "type": "Feature",
      "properties": {
        "norad_id": 33862,
        "name": "IRIDIUM 33 DEB",
        "group": "iridium-33-debris",
        "lat": -4.081454702884119,
        "lon": -140.65335922365946,
        "alt_km": 674.999555829424,
        "timestamp": "2025-12-09T04:51:47.876504+00:00",
        "meta_object_name": "IRIDIUM 33 DEB",
        "meta_object_id": "1997-051AF",
        "meta_epoch": "2025-12-08T15:29:23.037792",
        "meta_mean_motion": 14.69371874,
        "meta_eccentricity": 0.0053769,
        "meta_inclination": 86.4088,
        "meta_ra_of_asc_node": 39.3355,
        "meta_arg_of_pericenter": 82.8582,
        "meta_mean_anomaly": 34.8096,
        "meta_ephemeris_type": 0,
        "meta_classification_type": "U",
        "meta_norad_cat_id": 33862,
        "meta_element_set_no": 999,
        "meta_rev_at_epoch": 88763,
        "meta_bstar": 0.0017718,
        "meta_mean_motion_dot": 0.00010737,
        "meta_mean_motion_ddot": 0,
        "tle_line1": "1 33862U 97051AF  25342.64540553  .00010737  00000+0  17718-2 0  9995",
        "tle_line2": "2 33862  86.4088  39.3355 0053769  82.8582  34.8096 14.69371874887631"
      },
      "geometry": {
        "type": "Point",
        "coordinates": [
          -140.65335922365946,
          -4.081454702884119
        ]
      }
    },
    {
      "type": "Feature",
      "properties": {
        "norad_id": 33866,
        "name": "IRIDIUM 33 DEB",
        "group": "iridium-33-debris",
        "lat": 86.12206683703546,
        "lon": 167.1904775035412,
        "alt_km": 790.3795438306906,
        "timestamp": "2025-12-09T04:51:47.876515+00:00",
        "meta_object_name": "IRIDIUM 33 DEB",
        "meta_object_id": "1997-051AK",
        "meta_epoch": "2025-12-08T20:36:39.868128",
        "meta_mean_motion": 14.2525579,
        "meta_eccentricity": 0.0114152,
        "meta_inclination": 86.3002,
        "meta_ra_of_asc_node": 94.6775,
        "meta_arg_of_pericenter": 173.7602,
        "meta_mean_anomaly": 313.2599,
        "meta_ephemeris_type": 0,
        "meta_classification_type": "U",
        "meta_norad_cat_id": 33866,
        "meta_element_set_no": 999,
        "meta_rev_at_epoch": 86755,
        "meta_bstar": 0.0013239,
        "meta_mean_motion_dot": 3.351e-05,
        "meta_mean_motion_ddot": 0,
        "tle_line1": "1 33866U 97051AK  25342.85879477  .00003351  00000+0  13239-2 0  9990",
        "tle_line2": "2 33866  86.3002  94.6775 0114152 173.7602 313.2599 14.25255790867558"
      },
      "geometry": {
        "type": "Point",
        "coordinates": [
          167.1904775035412,
          86.12206683703546
        ]
      }
    },
    {
      "type": "Feature",
      "properties": {
        "norad_id": 33867,
        "name": "IRIDIUM 33 DEB",
        "group": "iridium-33-debris",
        "lat": 24.71806198126354,
        "lon": 170.25693557467167,
        "alt_km": 379.7825908113591,
        "timestamp": "2025-12-09T04:51:47.876526+00:00",
        "meta_object_name": "IRIDIUM 33 DEB",
        "meta_object_id": "1997-051AL",
        "meta_epoch": "2025-12-08T12:48:58.471776",
        "meta_mean_motion": 15.60555774,
        "meta_eccentricity": 0.0012895,
        "meta_inclination": 86.363,
        "meta_ra_of_asc_node": 352.2785,
        "meta_arg_of_pericenter": 90.3716,
        "meta_mean_anomaly": 269.9027,
        "meta_ephemeris_type": 0,
        "meta_classification_type": "U",
        "meta_norad_cat_id": 33867,
        "meta_element_set_no": 999,
        "meta_rev_at_epoch": 89445,
        "meta_bstar": 0.007562,
        "meta_mean_motion_dot": 0.00677686,
        "meta_mean_motion_ddot": 0,
        "tle_line1": "1 33867U 97051AL  25342.53401009  .00677686  00000+0  75620-2 0  9998",
        "tle_line2": "2 33867  86.3630 352.2785 0012895  90.3716 269.9027 15.60555774894458"
      },
      "geometry": {
        "type": "Point",
        "coordinates": [
          170.25693557467167,
          24.71806198126354
        ]
      }
    },
    {
      "type": "Feature",
      "properties": {
        "norad_id": 33870,
        "name": "IRIDIUM 33 DEB",
        "group": "iridium-33-debris",
        "lat": -72.09426128386671,
        "lon": 48.46113082413215,
        "alt_km": 748.7278056947616,
        "timestamp": "2025-12-09T04:51:47.876536+00:00",
        "meta_object_name": "IRIDIUM 33 DEB",
        "meta_object_id": "1997-051AP",
        "meta_epoch": "2025-12-08T18:08:27.400416",
        "meta_mean_motion": 14.45819097,
        "meta_eccentricity": 0.0021029,
        "meta_inclination": 86.3748,
        "meta_ra_of_asc_node": 59.9683,
        "meta_arg_of_pericenter": 191.2214,
        "meta_mean_anomaly": 292.2198,
        "meta_ephemeris_type": 0,
        "meta_classification_type": "U",
        "meta_norad_cat_id": 33870,
        "meta_element_set_no": 999,
        "meta_rev_at_epoch": 88079,
        "meta_bstar": 0.0014024,
        "meta_mean_motion_dot": 5.008e-05,
        "meta_mean_motion_ddot": 0,
        "tle_line1": "1 33870U 97051AP  25342.75587269  .00005008  00000+0  14024-2 0  9993",
        "tle_line2": "2 33870  86.3748  59.9683 0021029 191.2214 292.2198 14.45819097880796"
      },
      "geometry": {
        "type": "Point",
        "coordinates": [
          48.46113082413215,
          -72.09426128386671
        ]
      }
    },
    {
      "type": "Feature",
      "properties": {
        "norad_id": 33881,
        "name": "IRIDIUM 33 DEB",
        "group": "iridium-33-debris",
        "lat": 19.431776701580187,
        "lon": 109.55667162662184,
        "alt_km": 747.1315994643346,
        "timestamp": "2025-12-09T04:51:47.876547+00:00",
        "meta_object_name": "IRIDIUM 33 DEB",
        "meta_object_id": "1997-051BA",
        "meta_epoch": "2025-12-08T19:37:03.734976",
        "meta_mean_motion": 14.56459418,
        "meta_eccentricity": 0.0061417,
        "meta_inclination": 86.387,
        "meta_ra_of_asc_node": 108.4468,
        "meta_arg_of_pericenter": 187.3743,
        "meta_mean_anomaly": 333.7931,
        "meta_ephemeris_type": 0,
        "meta_classification_type": "U",
        "meta_norad_cat_id": 33881,
        "meta_element_set_no": 999,
        "meta_rev_at_epoch": 87443,
        "meta_bstar": 0.003034,
        "meta_mean_motion_dot": 0.00013864,
        "meta_mean_motion_ddot": 0,
        "tle_line1": "1 33881U 97051BA  25342.81740434  .00013864  00000+0  30340-2 0  9995",
        "tle_line2": "2 33881  86.3870 108.4468 0061417 187.3743 333.7931 14.56459418874432"
      },
      "geometry": {
        "type": "Point",
        "coordinates": [
          109.55667162662184,
          19.431776701580187
        ]
      }
    },
    {
      "type": "Feature",
      "properties": {
        "norad_id": 33884,
        "name": "IRIDIUM 33 DEB",
        "group": "iridium-33-debris",
        "lat": 61.144406472248725,
        "lon": 18.032227876990643,
        "alt_km": 631.2007776746123,
        "timestamp": "2025-12-09T04:51:47.876561+00:00",
        "meta_object_name": "IRIDIUM 33 DEB",
        "meta_object_id": "1997-051BD",
        "meta_epoch": "2025-12-08T14:31:15.449088",
        "meta_mean_motion": 14.77305834,
        "meta_eccentricity": 0.0010135,
        "meta_inclination": 86.3691,
        "meta_ra_of_asc_node": 11.6845,
        "meta_arg_of_pericenter": 339.4756,
        "meta_mean_anomaly": 145.6855,
        "meta_ephemeris_type": 0,
        "meta_classification_type": "U",
        "meta_norad_cat_id": 33884,
        "meta_element_set_no": 999,
        "meta_rev_at_epoch": 88786,
        "meta_bstar": 0.0017784,
        "meta_mean_motion_dot": 0.00012665,
        "meta_mean_motion_ddot": 0,
        "tle_line1": "1 33884U 97051BD  25342.60503992  .00012665  00000+0  17784-2 0  9996",
        "tle_line2": "2 33884  86.3691  11.6845 0010135 339.4756 145.6855 14.77305834887866"
      },
      "geometry": {
        "type": "Point",
        "coordinates": [
          18.032227876990643,
          61.144406472248725
        ]
      }
    }
  ]
}